KUIPER-00226            
1 67785U 26030X   26050.66668981  .00065038  00000+0  20720-2 0  9991
2 67785  51.8827 306.1675 0020111  18.3334 268.0145 15.31750185  1307
KUIPER-00259            
1 67786U 26030Y   26050.66668981  .00056083  00000+0  16635-2 0  9992
2 67786  51.8813 306.0531 0007538 358.1457 345.0608 15.34254128  2289
KUIPER-00260            
1 67787U 26030Z   26050.66668981  .00058915  00000+0  16713-2 0  9996
2 67787  51.8801 305.9822 0001368  86.8395 291.4464 15.35658024  2153
KUIPER-00262            
1 67788U 26030AA  26050.66668981  .00057288  00000+0  16142-2 0  9995
2 67788  51.8812 305.9724 0002067 112.6383 270.8460 15.35880222  1309
KUIPER-00266            
1 67789U 26030AB  26050.66668981  .00049598  00000+0  16032-2 0  9999
2 67789  51.8825 306.1811 0021885  18.0066 260.7664 15.31371227  1300
KUIPER-00268            
1 67790U 26030AC  26050.66668981  .00057136  00000+0  16436-2 0  9996
2 67790  51.8846 306.0013 0001632  25.2552 344.7475 15.35234596  1300
KUIPER-00270            
1 67791U 26030AD  26050.66668981  .00056306  00000+0  16912-2 0  9994
2 67791  51.8814 306.0718 0009714   4.1143 329.7351 15.33839055  1304
KUIPER-00274            
1 67792U 26030AE  26050.66668981  .00050124  00000+0  15766-2 0  9993
2 67792  51.8837 306.1470 0016753  15.6414 282.5338 15.32334528  1300
KUIPER-00275            
1 67793U 26030AF  26050.66668981  .00056837  00000+0  16925-2 0  9999
2 67793  51.8846 306.0633 0007870   2.8208 337.2807 15.34123564  1307
KUIPER-00276            
1 67794U 26030AG  26050.66668981  .00067198  00000+0  21311-2 0  9997
2 67794  51.8832 306.1543 0018876  10.9415 283.1386 15.31903641  2022
KUIPER-00279            
1 67795U 26030AH  26050.66668981  .00056903  00000+0  16729-2 0  9997
2 67795  51.8802 306.0379 0005762   1.0621 349.2467 15.34539469  1306
CREW DRAGON 12          
1 67796U 26031A   26051.21610692  .00009352  00000+0  18284-3 0  9992
2 67796  51.6324 158.7245 0008575 115.0388 245.1491 15.48153499553593
